KUIPER-00008            
1 63724U 25088A   25360.44341131 -.00025773  00000+0 -21044-2 0  9990
2 63724  51.8916  60.7946 0008298 215.2519 144.7903 14.98708254 37071
KUIPER-00009            
1 63725U 25088B   25360.44541285 -.00000674  00000+0 -58864-4 0  9998
2 63725  51.9034  70.5071 0012240 219.4155 140.5918 14.79955309 36934
KUIPER-00010            
1 63726U 25088C   25360.55898434  .00002457  00000+0  34686-3 0  9996
2 63726  51.9016  46.3251 0011537 257.4170 102.5502 14.80459792 36904
KUIPER-00011            
1 63727U 25088D   25360.59831288  .00001776  00000+0  26171-3 0  9998
2 63727  51.9032  53.8641 0012739 232.2158 127.7651 14.79977598 36935
KUIPER-00012            
1 63728U 25088E   25360.39345564  .00004618  00000+0  68147-3 0  9991
2 63728  51.9025  38.4533 0008150 240.5283 119.4865 14.76846711 37081
KUIPER-00013            
1 63729U 25088F   25360.44444313 -.00004102  00000+0 -50901-3 0  9999
2 63729  51.9042  71.9795 0007196 144.3790 215.7654 14.79928731 36728
KUIPER-00014            
1 63730U 25088G   25360.57765494 -.00001271  00000+0 -13827-3 0  9991
2 63730  51.9035  72.3561 0005885 215.3039 144.7534 14.79714300 36549
KUIPER-00015            
1 63731U 25088H   25360.59814417  .00003291  00000+0  43806-3 0  9996
2 63731  51.8988  83.0462 0010337 191.5557 168.5171 14.82061312 36850
